COMMENT,ORIGINATOR,NORAD_CAT_ID,OBJECT_NAME,OBJECT_TYPE,CLASSIFICATION_TYPE,INTLDES,EPOCH,EPOCH_MICROSECONDS,MEAN_MOTION,ECCENTRICITY,INCLINATION,RA_OF_ASC_NODE,ARG_OF_PERICENTER,MEAN_ANOMALY,EPHEMERIS_TYPE,ELEMENT_SET_NO,REV_AT_EPOCH,BSTAR,MEAN_MOTION_DOT,MEAN_MOTION_DDOT,FILE,TLE_LINE0,TLE_LINE1,TLE_LINE2,OBJECT_ID,OBJECT_NUMBER,SEMIMAJOR_AXIS,PERIOD,APOGEE,PERIGEE,DECAYED
"GENERATED VIA SPACETRACK.ORG API","18 SPCS","48899","SPACEBEE-110","PAYLOAD","U","21059W","2022-02-20 08:04:44","872608","15.13846154","0.0010463","97.5393","182.0661","142.2965","217.9002","0","999","3621","0.00038397","0.00006885","0","3310073","0 SPACEBEE-110","1 48899U 21059W   22051.33663047  .00006885  00000-0  38397-3 0  9997","2 48899  97.5393 182.0661 0010463 142.2965 217.9002 15.13846154 36214","2021-059W","48899","6902.621","95.122","531.708","517.264","0"
"GENERATED VIA SPACETRACK.ORG API","18 SPCS","48899","SPACEBEE-110","PAYLOAD","U","21059W","2022-02-20 19:11:01","437216","15.13850182","0.0010465","97.5392","182.5241","140.9784","219.2204","0","999","3628","0.00034146","0.00006115","0","3310498","0 SPACEBEE-110","1 48899U 21059W   22051.79932219  .00006115  00000-0  34146-3 0  9991","2 48899  97.5392 182.5241 0010465 140.9784 219.2204 15.13850182 36280","2021-059W","48899","6902.609","95.122","531.697","517.250","0"
"GENERATED VIA SPACETRACK.ORG API","18 SPCS","48899","SPACEBEE-110","PAYLOAD","U","21059W","2022-02-20 20:46:12","354528","15.13849957","0.0010451","97.5391","182.5895","140.8464","219.3525","0","999","3629","0.00030858","0.0000552","0","3310556","0 SPACEBEE-110","1 48899U 21059W   22051.86542077  .00005520  00000-0  30858-3 0  9993","2 48899  97.5391 182.5895 0010451 140.8464 219.3525 15.13849957 36299","2021-059W","48899","6902.609","95.122","531.688","517.260","0"
"GENERATED VIA SPACETRACK.ORG API","18 SPCS","48899","SPACEBEE-110","PAYLOAD","U","21059W","2022-02-21 22:09:06","752448","15.13863646","0.0010522","97.5391","183.6365","137.5355","222.6692","0","999","3645","0.00034315","0.00006149","0","3312023","0 SPACEBEE-110","1 48899U 21059W   22052.92299482  .00006149  00000-0  34315-3 0  9990","2 48899  97.5391 183.6365 0010522 137.5355 222.6692 15.13863646 36455","2021-059W","48899","6902.568","95.121","531.695","517.170","0"
"GENERATED VIA SPACETRACK.ORG API","18 SPCS","48899","SPACEBEE-110","PAYLOAD","U","21059W","2022-02-21 22:09:06","752448","15.13863646","0.0010522","97.5391","183.6365","137.5355","222.6692","0","999","3645","0.00034315","0.00006149","0","3312419","0 SPACEBEE-110","1 48899U 21059W   22052.92299482  .00006149  00000-0  34315-3 0  9990","2 48899  97.5391 183.6365 0010522 137.5355 222.6692 15.13863646 36455","2021-059W","48899","6902.568","95.121","531.695","517.170","0"
"GENERATED VIA SPACETRACK.ORG API","18 SPCS","48899","SPACEBEE-110","PAYLOAD","U","21059W","2022-02-22 07:40:11","907264","15.13868874","0.0010526","97.5391","184.0291","136.3948","223.8117","0","999","3651","0.0003461","0.00006203","0","3313833","0 SPACEBEE-110","1 48899U 21059W   22053.31958226  .00006203  00000-0  34610-3 0  9991","2 48899  97.5391 184.0291 0010526 136.3948 223.8117 15.13868874 36517","2021-059W","48899","6902.552","95.121","531.682","517.151","0"
"GENERATED VIA SPACETRACK.ORG API","18 SPCS","48899","SPACEBEE-110","PAYLOAD","U","21059W","2022-02-22 20:21:38","647008","15.13875244","0.0010549","97.539","184.5527","134.8427","225.3663","0","999","3659","0.00034744","0.00006228","0","3314780","0 SPACEBEE-110","1 48899U 21059W   22053.84836397  .00006228  00000-0  34744-3 0  9998","2 48899  97.5390 184.5527 0010549 134.8427 225.3663 15.13875244 36593","2021-059W","48899","6902.532","95.120","531.679","517.116","0"
"GENERATED VIA SPACETRACK.ORG API","18 SPCS","48899","SPACEBEE-110","PAYLOAD","U","21059W","2022-02-23 02:42:21","946464","15.13878465","0.0010563","97.5391","184.8144","134.0199","226.1904","0","999","3663","0.00035007","0.00006277","0","3315242","0 SPACEBEE-110","1 48899U 21059W   22054.11275401  .00006277  00000-0  35007-3 0  9999","2 48899  97.5391 184.8144 0010563 134.0199 226.1904 15.13878465 36636","2021-059W","48899","6902.523","95.120","531.679","517.096","0"
"GENERATED VIA SPACETRACK.ORG API","18 SPCS","48899","SPACEBEE-110","PAYLOAD","U","21059W","2022-02-23 07:27:54","356256","15.13881254","0.0010555","97.5391","185.0108","133.3875","226.8237","0","999","3666","0.00034651","0.00006213","0","3316306","0 SPACEBEE-110","1 48899U 21059W   22054.31104579  .00006213  00000-0  34651-3 0  9992","2 48899  97.5391 185.0108 0010555 133.3875 226.8237 15.13881254 36662","2021-059W","48899","6902.514","95.120","531.665","517.093","0"
"GENERATED VIA SPACETRACK.ORG API","18 SPCS","48899","SPACEBEE-110","PAYLOAD","U","21059W","2022-02-23 20:09:20","671776","15.13888701","0.0010583","97.5391","185.5343","131.7196","228.4943","0","999","3674","0.00035414","0.00006352","0","3317219","0 SPACEBEE-110","1 48899U 21059W   22054.83982259  .00006352  00000-0  35414-3 0  9990","2 48899  97.5391 185.5343 0010583 131.7196 228.4943 15.13888701 36742","2021-059W","48899","6902.491","95.119","531.661","517.052","0"
"GENERATED VIA SPACETRACK.ORG API","18 SPCS","48899","SPACEBEE-110","PAYLOAD","U","21059W","2022-02-24 04:05:14","477280","15.13894329","0.0010608","97.5391","185.8615","130.6512","229.5644","0","999","3679","0.00037718","0.00006771","0","3318034","0 SPACEBEE-110","1 48899U 21059W   22055.17030645  .00006771  00000-0  37718-3 0  9995","2 48899  97.5391 185.8615 0010608 130.6512 229.5644 15.13894329 36793","2021-059W","48899","6902.474","95.119","531.661","517.017","0"
"GENERATED VIA SPACETRACK.ORG API","18 SPCS","48899","SPACEBEE-110","PAYLOAD","U","21059W","2022-02-24 07:15:35","980992","15.13896351","0.0010621","97.5392","185.9924","130.1875","230.0288","0","999","3681","0.0003773","0.00006774","0","3318573","0 SPACEBEE-110","1 48899U 21059W   22055.30249978  .00006774  00000-0  37730-3 0  9998","2 48899  97.5392 185.9924 0010621 130.1875 230.0288 15.13896351 36811","2021-059W","48899","6902.468","95.119","531.664","517.002","0"
"GENERATED VIA SPACETRACK.ORG API","18 SPCS","48899","SPACEBEE-110","PAYLOAD","U","21059W","2022-02-24 21:32:12","612480","15.13902323","0.0010675","97.5392","186.5814","128.2447","231.9746","0","999","3690","0.00031309","0.0000561","0","3320325","0 SPACEBEE-110","1 48899U 21059W   22055.89736820  .00005610  00000-0  31309-3 0  9993","2 48899  97.5392 186.5814 0010675 128.2447 231.9746 15.13902323 36904","2021-059W","48899","6902.450","95.118","531.683","516.947","0"
"GENERATED VIA SPACETRACK.ORG API","18 SPCS","48899","SPACEBEE-110","PAYLOAD","U","21059W","2022-02-25 08:38:27","561408","15.13909421","0.0010699","97.5393","187.0396","126.7165","233.5051","0","999","3697","0.00033224","0.00005959","0","3322443","0 SPACEBEE-110","1 48899U 21059W   22056.36004122  .00005959  00000-0  33224-3 0  9993","2 48899  97.5393 187.0396 0010699 126.7165 233.5051 15.13909421 36972","2021-059W","48899","6902.428","95.118","531.678","516.909","0"
"GENERATED VIA SPACETRACK.ORG API","18 SPCS","48899","SPACEBEE-110","PAYLOAD","U","21059W","2022-02-25 21:19:53","47488","15.13915337","0.0010702","97.5393","187.5632","125.0318","235.1919","0","999","3705","0.00030491","0.00005464","0","3323947","0 SPACEBEE-110","1 48899U 21059W   22056.88880842  .00005464  00000-0  30491-3 0  9995","2 48899  97.5393 187.5632 0010702 125.0318 235.1919 15.13915337 37051","2021-059W","48899","6902.410","95.118","531.662","516.889","0"
"GENERATED VIA SPACETRACK.ORG API","18 SPCS","48899","SPACEBEE-110","PAYLOAD","U","21059W","2022-02-26 08:26:07","693152","15.13920925","0.0010736","97.5395","188.0213","123.5299","236.6959","0","999","3712","0.00029921","0.00005361","0","3326397","0 SPACEBEE-110","1 48899U 21059W   22057.35147793  .00005361  00000-0  29921-3 0  9991","2 48899  97.5395 188.0213 0010736 123.5299 236.6959 15.13920925 37129","2021-059W","48899","6902.393","95.117","531.669","516.848","0"
"GENERATED VIA SPACETRACK.ORG API","18 SPCS","48899","SPACEBEE-110","PAYLOAD","U","21059W","2022-02-26 19:32:22","212672","15.13926326","0.0010748","97.5394","188.4796","122.1516","238.076","0","999","3719","0.00030428","0.00005454","0","3326841","0 SPACEBEE-110","1 48899U 21059W   22057.81414598  .00005454  00000-0  30428-3 0  9999","2 48899  97.5394 188.4796 0010748 122.1516 238.0760 15.13926326 37192","2021-059W","48899","6902.377","95.117","531.661","516.823","0"
"GENERATED VIA SPACETRACK.ORG API","18 SPCS","48899","SPACEBEE-110","PAYLOAD","U","21059W","2022-02-26 21:07:32","833632","15.13925717","0.0010754","97.5395","188.545","121.9646","238.2633","0","999","3720","0.00025885","0.00004629","0","3327391","0 SPACEBEE-110","1 48899U 21059W   22057.88024113  .00004629  00000-0  25885-3 0  9990","2 48899  97.5395 188.5450 0010754 121.9646 238.2633 15.13925717 37205","2021-059W","48899","6902.379","95.117","531.667","516.821","0"
"GENERATED VIA SPACETRACK.ORG API","18 SPCS","48899","SPACEBEE-110","PAYLOAD","U","21059W","2022-02-27 08:13:47","202816","15.1393177","0.0010756","97.5394","189.0031","120.559","239.6704","0","999","3727","0.0002874","0.00005148","0","3329903","0 SPACEBEE-110","1 48899U 21059W   22058.34290744  .00005148  00000-0  28740-3 0  9997","2 48899  97.5394 189.0031 0010756 120.5590 239.6704 15.13931770 37277","2021-059W","48899","6902.361","95.117","531.650","516.801","0"
"GENERATED VIA SPACETRACK.ORG API","18 SPCS","48899","SPACEBEE-110","PAYLOAD","U","21059W","2022-02-27 20:55:11","995968","15.13939816","0.0010741","97.5394","189.5268","118.9587","241.2723","0","999","3735","0.000349","0.00006268","0","3331200","0 SPACEBEE-110","1 48899U 21059W   22058.87166662  .00006268  00000-0  34900-3 0  9995","2 48899  97.5394 189.5268 0010741 118.9587 241.2723 15.13939816 37353","2021-059W","48899","6902.336","95.116","531.615","516.787","0"
